SEEDS II (CO-66)        
1 32791U 08021J   26068.92109284  .00023758  00000+0  84213-3 0  9995
2 32791  97.7519  62.3611 0001448 359.2618   0.8619 15.29097235972108
STARLINK-35114          
1 65502U 25198L   26068.83037722  .00016009  00000+0  55153-3 0  9994
2 65502  53.1588 270.2032 0000831  86.6230 273.4866 15.30195328 28646
