[{"OBJECT_NAME":"SEEDS II (CO-66)","OBJECT_ID":"2008-021J","EPOCH":"2026-03-09T22:06:22.421376","MEAN_MOTION":15.29097236,"ECCENTRICITY":0.00014475,"INCLINATION":97.7519,"RA_OF_ASC_NODE":62.3611,"ARG_OF_PERICENTER":359.2618,"MEAN_ANOMALY":0.8619,"EPHEMERIS_TYPE":0,"CLASSIFICATION_TYPE":"U","NORAD_CAT_ID":32791,"ELEMENT_SET_NO":999,"REV_AT_EPOCH":97210,"BSTAR":0.00084213052,"MEAN_MOTION_DOT":0.00023758,"MEAN_MOTION_DDOT":0},{"OBJECT_NAME":"STARLINK-35114","OBJECT_ID":"2025-198L","EPOCH":"2026-03-09T19:55:44.591808","MEAN_MOTION":15.30195328,"ECCENTRICITY":8.316e-5,"INCLINATION":53.1588,"RA_OF_ASC_NODE":270.2032,"ARG_OF_PERICENTER":86.623,"MEAN_ANOMALY":273.4866,"EPHEMERIS_TYPE":0,"CLASSIFICATION_TYPE":"U","NORAD_CAT_ID":65502,"ELEMENT_SET_NO":999,"REV_AT_EPOCH":2864,"BSTAR":0.00055153274,"MEAN_MOTION_DOT":0.00016009,"MEAN_MOTION_DDOT":0}]
